{
    "links": {
        "self": "http://www.neowsapp.com/rest/v1/neo/3683246?api_key=iIulBulltgU6a56xZRHN4H3l9WmuAYTsLGpBGhQ2"
    },
    "id": "3683246",
    "neo_reference_id": "3683246",
    "name": "(2014 PP69)",
    "designation": "2014 PP69",
    "nasa_jpl_url": "http://ssd.jpl.nasa.gov/sbdb.cgi?sstr=3683246",
    "absolute_magnitude_h": 20.0,
    "estimated_diameter": {
        "kilometers": {
            "estimated_diameter_min": 0.2658,
            "estimated_diameter_max": 0.5943468684
        },
        "meters": {
            "estimated_diameter_min": 265.8,
            "estimated_diameter_max": 594.3468684194
        },
        "miles": {
            "estimated_diameter_min": 0.1651604118,
            "estimated_diameter_max": 0.369309908
        },
        "feet": {
            "estimated_diameter_min": 872.047272,
            "estimated_diameter_max": 1949.9569797852
        }
    },
    "is_potentially_hazardous_asteroid": false,
    "close_approach_data": [
        {
            "close_approach_date": "2014-08-30",
            "close_approach_date_full": "2014-Aug-30 00:14",
            "epoch_date_close_approach": 1409357640000,
            "relative_velocity": {
                "kilometers_per_second": "46.4312350194",
                "kilometers_per_hour": "167152.4460696985",
                "miles_per_hour": "103862.0296148079"
            },
            "miss_distance": {
                "astronomical": "0.4463231169",
                "lunar": "173.6196924741",
                "kilometers": "66768987.620001003",
                "miles": "41488325.0678717214"
            },
            "orbiting_body": "Earth"
        }
    ],
    "orbital_data": {
        "orbit_id": "28",
        "orbit_determination_date": "2017-04-06 08:39:18",
        "first_observation_date": "2014-08-05",
        "last_observation_date": "2014-10-21",
        "data_arc_in_days": 77,
        "observations_used": 105,
        "orbit_uncertainty": "5",
        "minimum_orbit_intersection": ".437579",
        "jupiter_tisserand_invariant": "0.156",
        "epoch_osculation": "2459000.5",
        "eccentricity": ".9414587914835073",
        "semi_major_axis": "21.33851701426822",
        "inclination": "93.68025196467325",
        "ascending_node_longitude": "338.4601561670848",
        "orbital_period": "36003.50458810206",
        "perihelion_distance": "1.249182573965003",
        "perihelion_argument": "311.4972895973778",
        "aphelion_distance": "41.42785145457143",
        "perihelion_time": "2456851.378856692373",
        "mean_anomaly": "21.48911947439755",
        "mean_motion": ".009999026598065338",
        "equinox": "J2000",
        "orbit_class": {
            "orbit_class_type": "AMO",
            "orbit_class_description": "Near-Earth asteroid orbits similar to that of 1221 Amor",
            "orbit_class_range": "1.017 AU < q (perihelion) < 1.3 AU"
        }
    },
    "is_sentry_object": false
}